NORAD_CAT_ID,OBJECT_NAME,OBJECT_TYPE,EPOCH,MEAN_MOTION,ECCENTRICITY,INCLINATION,RA_OF_ASC_NODE,ARG_OF_PERICENTER,MEAN_ANOMALY,BSTAR,MEAN_MOTION_DOT,MEAN_MOTION_DDOT,TLE_LINE0,TLE_LINE1,TLE_LINE2,SEMIMAJOR_AXIS,PERIOD,APOGEE,PERIGEE,DECAYED
51879.0,STARLINK-3572,PAYLOAD,2022-09-09 22:00:00,15.08838991,0.0001521999999999,53.217,330.7761,57.0035,191.123,-0.0011535,-0.00018598,0.0,0 STARLINK-3572,1 51879U 22022AD  22252.91667824 -.00018598  00000-0 -11535-2 0  9994,2 51879  53.2170 330.7761 0001522  57.0035 191.1230 15.08838991  1300,6917.8830000000025,95.438,540.8009999999998,538.696,0.0
51879.0,STARLINK-3572,PAYLOAD,2022-09-10 06:00:02,15.0885674,0.0001488,53.217,329.2794,62.4623,197.3084,-0.0017291,-0.00027714,0.0,0 STARLINK-3572,1 51879U 22022AD  22253.25002315 -.00027714  00000-0 -17291-2 0  9995,2 51879  53.2170 329.2794 0001488  62.4623 197.3084 15.08856740 30548,6917.829000000002,95.436,540.724,538.665,0.0
51879.0,STARLINK-3572,PAYLOAD,2022-09-10 14:00:01,15.08800496,0.0001582,53.2169,327.7848,51.9809,219.3344,0.0022467,0.00035611,0.0,0 STARLINK-3572,1 51879U 22022AD  22253.58334491  .00035611  00000-0  22467-2 0  9998,2 51879  53.2169 327.7848 0001582  51.9809 219.3344 15.08800496  1306,6918.001,95.44,540.961,538.7719999999998,0.0
51879.0,STARLINK-3572,PAYLOAD,2022-09-10 22:00:00,15.08847572,0.0001408,53.2169,326.2867,51.9554,230.9203,-0.0041379,-0.00065557,0.0,0 STARLINK-3572,1 51879U 22022AD  22253.91667824 -.00065557  00000-0 -41379-2 0  9991,2 51879  53.2169 326.2867 0001408  51.9554 230.9203 15.08847572  1304,6917.857,95.437,540.696,538.748,0.0
51879.0,STARLINK-3572,PAYLOAD,2022-09-11 14:00:01,15.08809181,0.000156,53.2171,323.2939,49.3916,256.6429,0.0020831,0.00032992,0.0,0 STARLINK-3572,1 51879U 22022AD  22254.58334491  .00032992  00000-0  20831-2 0  9991,2 51879  53.2171 323.2939 0001560  49.3916 256.6429 15.08809181 30745,6917.975,95.44,540.919,538.76,0.0
51879.0,STARLINK-3572,PAYLOAD,2022-09-11 22:00:00,15.08842685,0.0001443999999999,53.2167,321.798,49.2257,268.387,-0.00033963,-5.689e-05,0.0,0 STARLINK-3572,1 51879U 22022AD  22254.91667824 -.00005689  00000-0 -33963-3 0  9993,2 51879  53.2167 321.7980 0001444  49.2257 268.3870 15.08842685  1303,6917.871999999999,95.437,540.736,538.738,0.0
51879.0,STARLINK-3572,PAYLOAD,2022-09-12 14:00:01,15.08813225,0.0001569,53.2168,318.8065,43.606,297.2146,0.00271,0.00043074,0.0,0 STARLINK-3572,1 51879U 22022AD  22255.58334491  .00043074  00000-0  27100-2 0  9991,2 51879  53.2168 318.8065 0001569  43.6060 297.2146 15.08813225 30894,6917.962,95.439,540.913,538.742,0.0
51879.0,STARLINK-3572,PAYLOAD,2022-09-12 22:00:00,15.08847623,0.0001446,53.2168,317.3085,46.6854,305.7214,-8.6758e-05,-1.669e-05,0.0,0 STARLINK-3572,1 51879U 22022AD  22255.91667824 -.00001669  00000-0 -86758-4 0  9999,2 51879  53.2168 317.3085 0001446  46.6854 305.7214 15.08847623  1302,6917.857,95.437,540.722,538.722,0.0
51879.0,STARLINK-3572,PAYLOAD,2022-09-13 06:00:00,15.08877311,0.0001460999999999,53.2173,315.8083,49.1017,314.9086,-0.0088249,-0.00138194,0.0,0 STARLINK-3572,1 51879U 22022AD  22256.25001157 -.00138194  00000-0 -88249-2 0  9997,2 51879  53.2173 315.8083 0001461  49.1017 314.9086 15.08877311 31001,6917.766,95.435,540.6419999999998,538.621,0.0
51879.0,STARLINK-3572,PAYLOAD,2022-09-13 14:00:01,15.08818629,0.0001607,53.2175,314.3122,40.5047,335.0714,0.0019206,0.00030393,0.0,0 STARLINK-3572,1 51879U 22022AD  22256.58334491  .00030393  00000-0  19206-2 0  9990,2 51879  53.2175 314.3122 0001607  40.5047 335.0714 15.08818629  1300,6917.946,95.439,540.922,538.6990000000002,0.0
51879.0,STARLINK-3572,PAYLOAD,2022-09-13 16:00:00,15.08837821,0.0001606,53.2172,313.9375,39.6812,68.7843,-1.6622e-05,-5.53e-06,0.0,0 STARLINK-3572,1 51879U 22022AD  22256.66667824 -.00000553  00000-0 -16622-4 0  9996,2 51879  53.2172 313.9375 0001606  39.6812  68.7843 15.08837821 31064,6917.887,95.438,540.863,538.641,0.0
51879.0,STARLINK-3572,PAYLOAD,2022-09-13 22:00:00,15.08815757,0.0001631999999999,53.217,312.8185,52.1781,335.0282,0.00052338,8.046e-05,0.0,0 STARLINK-3572,1 51879U 22022AD  22256.91667824  .00008046  00000-0  52338-3 0  9990,2 51879  53.2170 312.8185 0001632  52.1781 335.0282 15.08815757  1308,6917.954000000002,95.439,540.9490000000002,538.69,0.0
51879.0,STARLINK-3572,PAYLOAD,2022-09-14 14:00:01,15.088323999999998,0.0001764999999999,53.2172,309.8261,47.3697,2.9911,0.00016172,2.286e-05,0.0,0 STARLINK-3572,1 51879U 22022AD  22257.58334491  .00002286  00000-0  16172-3 0  9991,2 51879  53.2172 309.8261 0001765  47.3697   2.9911 15.08832400  1303,6917.904,95.438,540.99,538.548,0.0
51879.0,STARLINK-3572,PAYLOAD,2022-09-14 22:00:00,15.08825668,0.0001551,53.2167,308.3295,51.7513,10.2275,-0.0002342,-4.012e-05,0.0,0 STARLINK-3572,1 51879U 22022AD  22257.91667824 -.00004012  00000-0 -23420-3 0  9992,2 51879  53.2167 308.3295 0001551  51.7513  10.2275 15.08825668  1300,6917.924,95.438,540.862,538.716,0.0
51879.0,STARLINK-3572,PAYLOAD,2022-09-15 14:00:01,15.08814757,0.0001706999999999,53.2164,305.3383,46.2948,38.8526,0.0033988,0.00054183,0.0,0 STARLINK-3572,1 51879U 22022AD  22258.58334491  .00054183  00000-0  33988-2 0  9998,2 51879  53.2164 305.3383 0001707  46.2948  38.8526 15.08814757  1308,6917.958000000001,95.439,541.003,538.6419999999998,0.0
51879.0,STARLINK-3572,PAYLOAD,2022-09-15 19:59:01,15.08838251,0.0001648,53.2169,304.2176,55.4288,304.6859,0.00010747,1.423e-05,0.0,0 STARLINK-3572,1 51879U 22022AD  22258.83265983  .00001423  00000-0  10747-3 0  9993,2 51879  53.2169 304.2176 0001648  55.4288 304.6859 15.08838251 31394,6917.886,95.438,540.891,538.611,0.0
51879.0,STARLINK-3572,PAYLOAD,2022-09-16 11:52:53,15.08836773,0.0001709,53.2167,301.2449,51.7812,308.3334,5.620100000000001e-05,6.06e-06,0.0,0 STARLINK-3572,1 51879U 22022AD  22259.49506104  .00000606  00000-0  56201-4 0  9997,2 51879  53.2167 301.2449 0001709  51.7812 308.3334 15.08836773 31499,6917.89,95.438,540.938,538.573,0.0
51879.0,STARLINK-3572,PAYLOAD,2022-09-16 19:49:49,15.0883653,0.0001626999999999,53.2164,299.7566,51.412,308.7017,6.0921e-05,6.82e-06,0.0,0 STARLINK-3572,1 51879U 22022AD  22259.82626243  .00000682  00000-0  60921-4 0  9999,2 51879  53.2164 299.7566 0001627  51.4120 308.7017 15.08836530 31544,6917.891,95.438,540.882,538.63,0.0
51879.0,STARLINK-3572,PAYLOAD,2022-09-17 03:46:45,15.08830664,0.0001861,53.2167,298.27,45.1309,314.9834,4.9929e-05,5.06e-06,0.0,0 STARLINK-3572,1 51879U 22022AD  22260.15746719  .00000506  00000-0  49929-4 0  9998,2 51879  53.2167 298.2700 0001861  45.1309 314.9834 15.08830664 31593,6917.909000000002,95.438,541.061,538.487,0.0
51879.0,STARLINK-3572,PAYLOAD,2022-09-17 10:08:17,15.08825643,0.0001625,53.2164,297.0806,53.2461,306.868,-8.3521e-05,-1.616e-05,0.0,0 STARLINK-3572,1 51879U 22022AD  22260.42242984 -.00001616  00000-0 -83521-4 0  9994,2 51879  53.2164 297.0806 0001625  53.2461 306.8680 15.08825643 31636,6917.924,95.438,540.913,538.665,0.0
51879.0,STARLINK-3572,PAYLOAD,2022-09-17 19:40:36,15.0882934,0.0001681,53.2162,295.2968,53.1948,306.9198,2.2872e-05,7.6e-07,0.0,0 STARLINK-3572,1 51879U 22022AD  22260.81987248  .00000076  00000-0  22872-4 0  9995,2 51879  53.2162 295.2968 0001681  53.1948 306.9198 15.08829340 31693,6917.913000000001,95.438,540.941,538.615,0.0
51879.0,STARLINK-3572,PAYLOAD,2022-09-18 09:59:05,15.088339800000002,0.0001739,53.2162,292.6203,53.9722,306.1432,0.00016959,2.412e-05,0.0,0 STARLINK-3572,1 51879U 22022AD  22261.41603597  .00002412  00000-0  16959-3 0  9998,2 51879  53.2162 292.6203 0001739  53.9722 306.1432 15.08833980 31786,6917.899,95.438,540.967,538.561,0.0
51879.0,STARLINK-3572,PAYLOAD,2022-09-18 19:31:24,15.08838806,0.0001801,53.2161,290.8366,53.5659,306.5499,0.00031881,4.789e-05,0.0,0 STARLINK-3572,1 51879U 22022AD  22261.81347731  .00004789  00000-0  31881-3 0  9997,2 51879  53.2161 290.8366 0001801  53.5659 306.5499 15.08838806 31846,6917.884,95.438,540.995,538.503,0.0
51879.0,STARLINK-3572,PAYLOAD,2022-09-19 08:14:29,15.08848901,0.0001811999999999,53.2159,288.4573,53.9284,306.1876,0.00052316,8.05e-05,0.0,0 STARLINK-3572,1 51879U 22022AD  22262.34339590  .00008050  00000-0  52316-3 0  9991,2 51879  53.2159 288.4573 0001812  53.9284 306.1876 15.08848901 31927,6917.853,95.437,540.972,538.465,0.0
51879.0,STARLINK-3572,PAYLOAD,2022-09-20 11:16:02,15.08848083,0.0001896999999999,53.216,283.4025,53.1233,306.9933,0.00015106,2.117e-05,0.0,0 STARLINK-3572,1 51879U 22022AD  22263.46946980  .00002117  00000-0  15106-3 0  9996,2 51879  53.2160 283.4025 0001897  53.1233 306.9933 15.08848083 32097,6917.856,95.437,541.033,538.408,0.0
51879.0,STARLINK-3572,PAYLOAD,2022-09-20 20:48:20,15.08852958,0.0001901,53.2159,281.6183,52.3132,307.8033,0.0001717,2.446e-05,0.0,0 STARLINK-3572,1 51879U 22022AD  22263.86690494  .00002446  00000-0  17170-3 0  9994,2 51879  53.2159 281.6183 0001901  52.3132 307.8033 15.08852958 32159,6917.840999999999,95.437,541.021,538.391,0.0
51879.0,STARLINK-3572,PAYLOAD,2022-09-21 03:09:53,15.08839899,0.0001903,53.2163,280.4293,48.7017,311.4139,-5.0034e-05,-1.084e-05,0.0,0 STARLINK-3572,1 51879U 22022AD  22264.13186988 -.00001084  00000-0 -50034-4 0  9999,2 51879  53.2163 280.4293 0001903  48.7017 311.4139 15.08839899 32197,6917.880999999999,95.438,541.062,538.429,0.0
51879.0,STARLINK-3572,PAYLOAD,2022-09-21 20:39:07,15.08844739,0.0001908,53.2169,277.1575,40.7968,319.3167,1.9971e-05,3e-07,0.0,0 STARLINK-3572,1 51879U 22022AD  22264.86050866  .00000030  00000-0  19971-4 0  9997,2 51879  53.2169 277.1575 0001908  40.7968 319.3167 15.08844739 32301,6917.866,95.437,541.0509999999998,538.411,0.0
51879.0,STARLINK-3572,PAYLOAD,2022-09-22 04:36:03,15.08847549,0.0002019,53.2171,275.6712,38.2829,321.8306,4.4127e-05,4.14e-06,0.0,0 STARLINK-3572,1 51879U 22022AD  22265.19170607  .00000414  00000-0  44127-4 0  9997,2 51879  53.2171 275.6712 0002019  38.2829 321.8306 15.08847549 32352,6917.857,95.437,541.119,538.326,0.0
